[{"OBJECT_NAME":"ION SCV-011","OBJECT_ID":"2023-084AB","EPOCH":"2026-03-09T22:35:16.566144","MEAN_MOTION":15.27752464,"ECCENTRICITY":0.00079323,"INCLINATION":98.1356,"RA_OF_ASC_NODE":247.1056,"ARG_OF_PERICENTER":30.3898,"MEAN_ANOMALY":329.7798,"EPHEMERIS_TYPE":0,"CLASSIFICATION_TYPE":"U","NORAD_CAT_ID":56957,"ELEMENT_SET_NO":999,"REV_AT_EPOCH":15065,"BSTAR":0.0002590454,"MEAN_MOTION_DOT":6.943e-5,"MEAN_MOTION_DDOT":0},{"OBJECT_NAME":"STARLINK-36430","OBJECT_ID":"2026-002X","EPOCH":"2026-03-09T02:25:27.034176","MEAN_MOTION":15.27585781,"ECCENTRICITY":0.00034264,"INCLINATION":43.0007,"RA_OF_ASC_NODE":328.1775,"ARG_OF_PERICENTER":244.167,"MEAN_ANOMALY":115.8829,"EPHEMERIS_TYPE":0,"CLASSIFICATION_TYPE":"U","NORAD_CAT_ID":67326,"ELEMENT_SET_NO":999,"REV_AT_EPOCH":1115,"BSTAR":0.0010713694,"MEAN_MOTION_DOT":0.00029345,"MEAN_MOTION_DDOT":0}]
